[{"OBJECT_NAME":"STARLINK-35102","OBJECT_ID":"2025-221S","EPOCH":"2025-11-01T08:18:02.413728","MEAN_MOTION":15.49345268,"ECCENTRICITY":0.00010311,"INCLINATION":53.159,"RA_OF_ASC_NODE":325.1775,"ARG_OF_PERICENTER":95.2172,"MEAN_ANOMALY":264.8955,"EPHEMERIS_TYPE":0,"CLASSIFICATION_TYPE":"U","NORAD_CAT_ID":65839,"ELEMENT_SET_NO":999,"REV_AT_EPOCH":507,"BSTAR":0.0014909358,"MEAN_MOTION_DOT":0.00083469,"MEAN_MOTION_DDOT":0},{"OBJECT_NAME":"STARLINK-35364","OBJECT_ID":"2025-221T","EPOCH":"2025-11-01T12:56:13.363584","MEAN_MOTION":15.4933808,"ECCENTRICITY":0.0001212,"INCLINATION":53.1594,"RA_OF_ASC_NODE":324.2502,"ARG_OF_PERICENTER":92.1551,"MEAN_ANOMALY":267.9597,"EPHEMERIS_TYPE":0,"CLASSIFICATION_TYPE":"U","NORAD_CAT_ID":65840,"ELEMENT_SET_NO":999,"REV_AT_EPOCH":510,"BSTAR":0.0016785915,"MEAN_MOTION_DOT":0.00094137,"MEAN_MOTION_DDOT":0},{"OBJECT_NAME":"STARLINK-35238","OBJECT_ID":"2025-221U","EPOCH":"2025-11-01T14:00:01.999872","MEAN_MOTION":15.49253966,"ECCENTRICITY":0.00011261,"INCLINATION":53.1586,"RA_OF_ASC_NODE":324.0346,"ARG_OF_PERICENTER":77.5518,"MEAN_ANOMALY":171.7974,"EPHEMERIS_TYPE":0,"CLASSIFICATION_TYPE":"U","NORAD_CAT_ID":65841,"ELEMENT_SET_NO":999,"REV_AT_EPOCH":610,"BSTAR":0.0020544396,"MEAN_MOTION_DOT":0.00115288,"MEAN_MOTION_DDOT":0},{"OBJECT_NAME":"STARLINK-35298","OBJECT_ID":"2025-221V","EPOCH":"2025-11-01T08:17:03.060384","MEAN_MOTION":15.49326919,"ECCENTRICITY":0.00012425,"INCLINATION":53.1595,"RA_OF_ASC_NODE":325.1724,"ARG_OF_PERICENTER":90.1302,"MEAN_ANOMALY":269.9849,"EPHEMERIS_TYPE":0,"CLASSIFICATION_TYPE":"U","NORAD_CAT_ID":65842,"ELEMENT_SET_NO":999,"REV_AT_EPOCH":507,"BSTAR":0.001870392,"MEAN_MOTION_DOT":0.00105051,"MEAN_MOTION_DDOT":0},{"OBJECT_NAME":"STARLINK-35301","OBJECT_ID":"2025-221W","EPOCH":"2025-11-01T14:00:01.999872","MEAN_MOTION":15.4931105,"ECCENTRICITY":0.000109,"INCLINATION":53.1587,"RA_OF_ASC_NODE":324.0262,"ARG_OF_PERICENTER":82.3345,"MEAN_ANOMALY":170.8368,"EPHEMERIS_TYPE":0,"CLASSIFICATION_TYPE":"U","NORAD_CAT_ID":65843,"ELEMENT_SET_NO":999,"REV_AT_EPOCH":610,"BSTAR":-0.00023766085,"MEAN_MOTION_DOT":-0.00013644,"MEAN_MOTION_DDOT":0},{"OBJECT_NAME":"STARLINK-35148","OBJECT_ID":"2025-221X","EPOCH":"2025-11-01T00:00:02.999808","MEAN_MOTION":15.49309819,"ECCENTRICITY":0.00011566,"INCLINATION":53.1588,"RA_OF_ASC_NODE":326.8167,"ARG_OF_PERICENTER":91.3643,"MEAN_ANOMALY":144.5635,"EPHEMERIS_TYPE":0,"CLASSIFICATION_TYPE":"U","NORAD_CAT_ID":65844,"ELEMENT_SET_NO":999,"REV_AT_EPOCH":595,"BSTAR":-0.00034040028,"MEAN_MOTION_DOT":-0.00019333,"MEAN_MOTION_DDOT":0},{"OBJECT_NAME":"STARLINK-35302","OBJECT_ID":"2025-221Y","EPOCH":"2025-10-31T09:01:42.010752","MEAN_MOTION":15.49296911,"ECCENTRICITY":0.00022121,"INCLINATION":53.1599,"RA_OF_ASC_NODE":329.7889,"ARG_OF_PERICENTER":41.9594,"MEAN_ANOMALY":318.1585,"EPHEMERIS_TYPE":0,"CLASSIFICATION_TYPE":"U","NORAD_CAT_ID":65845,"ELEMENT_SET_NO":999,"REV_AT_EPOCH":492,"BSTAR":0.0021071227,"MEAN_MOTION_DOT":0.00118487,"MEAN_MOTION_DDOT":0},{"OBJECT_NAME":"STARLINK-35290","OBJECT_ID":"2025-221Z","EPOCH":"2025-11-01T08:14:34.741824","MEAN_MOTION":15.49336029,"ECCENTRICITY":0.00013993,"INCLINATION":53.1596,"RA_OF_ASC_NODE":325.1616,"ARG_OF_PERICENTER":52.2178,"MEAN_ANOMALY":307.8958,"EPHEMERIS_TYPE":0,"CLASSIFICATION_TYPE":"U","NORAD_CAT_ID":65846,"ELEMENT_SET_NO":999,"REV_AT_EPOCH":507,"BSTAR":0.0039695128,"MEAN_MOTION_DOT":0.00227072,"MEAN_MOTION_DDOT":0},{"OBJECT_NAME":"STARLINK-35262","OBJECT_ID":"2025-221AA","EPOCH":"2025-11-01T14:00:01.999872","MEAN_MOTION":15.45237942,"ECCENTRICITY":0.00014689,"INCLINATION":53.1591,"RA_OF_ASC_NODE":324.0198,"ARG_OF_PERICENTER":88.3885,"MEAN_ANOMALY":167.7311,"EPHEMERIS_TYPE":0,"CLASSIFICATION_TYPE":"U","NORAD_CAT_ID":65847,"ELEMENT_SET_NO":999,"REV_AT_EPOCH":604,"BSTAR":-0.047516726,"MEAN_MOTION_DOT":-0.02042058,"MEAN_MOTION_DDOT":0},{"OBJECT_NAME":"STARLINK-35308","OBJECT_ID":"2025-221AB","EPOCH":"2025-11-01T12:54:14.484960","MEAN_MOTION":15.49329414,"ECCENTRICITY":0.00012502,"INCLINATION":53.1589,"RA_OF_ASC_NODE":324.2338,"ARG_OF_PERICENTER":98.2413,"MEAN_ANOMALY":261.8738,"EPHEMERIS_TYPE":0,"CLASSIFICATION_TYPE":"U","NORAD_CAT_ID":65848,"ELEMENT_SET_NO":999,"REV_AT_EPOCH":645,"BSTAR":0.0026040603,"MEAN_MOTION_DOT":0.00147246,"MEAN_MOTION_DDOT":0},{"OBJECT_NAME":"STARLINK-35231","OBJECT_ID":"2025-221AC","EPOCH":"2025-11-01T14:00:01.999872","MEAN_MOTION":15.43972725,"ECCENTRICITY":0.00016688,"INCLINATION":53.159,"RA_OF_ASC_NODE":324.0325,"ARG_OF_PERICENTER":84.5597,"MEAN_ANOMALY":164.9194,"EPHEMERIS_TYPE":0,"CLASSIFICATION_TYPE":"U","NORAD_CAT_ID":65849,"ELEMENT_SET_NO":999,"REV_AT_EPOCH":605,"BSTAR":-0.049159924,"MEAN_MOTION_DOT":-0.02025012,"MEAN_MOTION_DDOT":0},{"OBJECT_NAME":"STARLINK-35252","OBJECT_ID":"2025-221AD","EPOCH":"2025-11-01T14:00:01.999872","MEAN_MOTION":15.46252954,"ECCENTRICITY":0.00012568,"INCLINATION":53.1588,"RA_OF_ASC_NODE":324.0109,"ARG_OF_PERICENTER":88.9101,"MEAN_ANOMALY":172.0323,"EPHEMERIS_TYPE":0,"CLASSIFICATION_TYPE":"U","NORAD_CAT_ID":65850,"ELEMENT_SET_NO":999,"REV_AT_EPOCH":604,"BSTAR":-0.046134743,"MEAN_MOTION_DOT":-0.0205222,"MEAN_MOTION_DDOT":0},{"OBJECT_NAME":"STARLINK-35208","OBJECT_ID":"2025-223A","EPOCH":"2025-11-01T08:37:16.165632","MEAN_MOTION":15.39641943,"ECCENTRICITY":0.00017076,"INCLINATION":53.1602,"RA_OF_ASC_NODE":172.6709,"ARG_OF_PERICENTER":76.3266,"MEAN_ANOMALY":283.7929,"EPHEMERIS_TYPE":0,"CLASSIFICATION_TYPE":"U","NORAD_CAT_ID":65854,"ELEMENT_SET_NO":999,"REV_AT_EPOCH":452,"BSTAR":0.0011916705,"MEAN_MOTION_DOT":0.00047599,"MEAN_MOTION_DDOT":0},{"OBJECT_NAME":"STARLINK-35200","OBJECT_ID":"2025-223B","EPOCH":"2025-11-01T14:00:01.999872","MEAN_MOTION":15.39584894,"ECCENTRICITY":0.00011592,"INCLINATION":53.1591,"RA_OF_ASC_NODE":171.2561,"ARG_OF_PERICENTER":102.0249,"MEAN_ANOMALY":241.3863,"EPHEMERIS_TYPE":0,"CLASSIFICATION_TYPE":"U","NORAD_CAT_ID":65855,"ELEMENT_SET_NO":999,"REV_AT_EPOCH":587,"BSTAR":0.0017483593,"MEAN_MOTION_DOT":0.00070097,"MEAN_MOTION_DDOT":0},{"OBJECT_NAME":"STARLINK-35459","OBJECT_ID":"2025-223C","EPOCH":"2025-10-31T21:22:52.137408","MEAN_MOTION":15.39624351,"ECCENTRICITY":9.562e-5,"INCLINATION":53.161,"RA_OF_ASC_NODE":174.723,"ARG_OF_PERICENTER":69.1969,"MEAN_ANOMALY":290.9138,"EPHEMERIS_TYPE":0,"CLASSIFICATION_TYPE":"U","NORAD_CAT_ID":65856,"ELEMENT_SET_NO":999,"REV_AT_EPOCH":445,"BSTAR":0.0013772294,"MEAN_MOTION_DOT":0.00055095,"MEAN_MOTION_DDOT":0},{"OBJECT_NAME":"STARLINK-35489","OBJECT_ID":"2025-223D","EPOCH":"2025-11-01T14:00:01.999872","MEAN_MOTION":15.41353056,"ECCENTRICITY":8.544e-5,"INCLINATION":53.1601,"RA_OF_ASC_NODE":171.1039,"ARG_OF_PERICENTER":127.3174,"MEAN_ANOMALY":292.4448,"EPHEMERIS_TYPE":0,"CLASSIFICATION_TYPE":"U","NORAD_CAT_ID":65857,"ELEMENT_SET_NO":999,"REV_AT_EPOCH":587,"BSTAR":-0.063072542,"MEAN_MOTION_DOT":-0.02377346,"MEAN_MOTION_DDOT":0},{"OBJECT_NAME":"STARLINK-35199","OBJECT_ID":"2025-223E","EPOCH":"2025-11-01T14:00:01.999872","MEAN_MOTION":15.39588519,"ECCENTRICITY":0.00011422,"INCLINATION":53.1598,"RA_OF_ASC_NODE":171.3577,"ARG_OF_PERICENTER":103.4842,"MEAN_ANOMALY":188.4254,"EPHEMERIS_TYPE":0,"CLASSIFICATION_TYPE":"U","NORAD_CAT_ID":65858,"ELEMENT_SET_NO":999,"REV_AT_EPOCH":587,"BSTAR":0.0017042622,"MEAN_MOTION_DOT":0.00068311,"MEAN_MOTION_DDOT":0},{"OBJECT_NAME":"STARLINK-35408","OBJECT_ID":"2025-223F","EPOCH":"2025-11-01T14:44:29.673312","MEAN_MOTION":15.39624525,"ECCENTRICITY":0.0002182,"INCLINATION":53.1601,"RA_OF_ASC_NODE":171.4187,"ARG_OF_PERICENTER":82.9139,"MEAN_ANOMALY":277.2114,"EPHEMERIS_TYPE":0,"CLASSIFICATION_TYPE":"U","NORAD_CAT_ID":65859,"ELEMENT_SET_NO":999,"REV_AT_EPOCH":456,"BSTAR":0.0011408527,"MEAN_MOTION_DOT":0.00045514,"MEAN_MOTION_DDOT":0},{"OBJECT_NAME":"STARLINK-35303","OBJECT_ID":"2025-223G","EPOCH":"2025-11-01T08:10:31.569888","MEAN_MOTION":15.39639149,"ECCENTRICITY":0.0001196,"INCLINATION":53.16,"RA_OF_ASC_NODE":172.5541,"ARG_OF_PERICENTER":73.3726,"MEAN_ANOMALY":286.7411,"EPHEMERIS_TYPE":0,"CLASSIFICATION_TYPE":"U","NORAD_CAT_ID":65860,"ELEMENT_SET_NO":999,"REV_AT_EPOCH":452,"BSTAR":0.001621706,"MEAN_MOTION_DOT":0.00065064,"MEAN_MOTION_DDOT":0},{"OBJECT_NAME":"STARLINK-35258","OBJECT_ID":"2025-223H","EPOCH":"2025-10-31T22:07:58.130112","MEAN_MOTION":15.49338917,"ECCENTRICITY":9.438e-5,"INCLINATION":53.1597,"RA_OF_ASC_NODE":174.2063,"ARG_OF_PERICENTER":63.2153,"MEAN_ANOMALY":296.8953,"EPHEMERIS_TYPE":0,"CLASSIFICATION_TYPE":"U","NORAD_CAT_ID":65861,"ELEMENT_SET_NO":999,"REV_AT_EPOCH":446,"BSTAR":0.0010475061,"MEAN_MOTION_DOT":0.00058307,"MEAN_MOTION_DDOT":0},{"OBJECT_NAME":"STARLINK-35386","OBJECT_ID":"2025-223J","EPOCH":"2025-11-01T14:00:01.999872","MEAN_MOTION":15.39585128,"ECCENTRICITY":8.238e-5,"INCLINATION":53.1597,"RA_OF_ASC_NODE":171.3052,"ARG_OF_PERICENTER":149.1165,"MEAN_ANOMALY":168.5366,"EPHEMERIS_TYPE":0,"CLASSIFICATION_TYPE":"U","NORAD_CAT_ID":65862,"ELEMENT_SET_NO":999,"REV_AT_EPOCH":587,"BSTAR":0.0017009668,"MEAN_MOTION_DOT":0.0006817,"MEAN_MOTION_DDOT":0},{"OBJECT_NAME":"STARLINK-35469","OBJECT_ID":"2025-223K","EPOCH":"2025-11-01T08:23:54.065184","MEAN_MOTION":15.39629839,"ECCENTRICITY":0.00015702,"INCLINATION":53.1607,"RA_OF_ASC_NODE":172.6103,"ARG_OF_PERICENTER":76.1019,"MEAN_ANOMALY":284.0161,"EPHEMERIS_TYPE":0,"CLASSIFICATION_TYPE":"U","NORAD_CAT_ID":65863,"ELEMENT_SET_NO":999,"REV_AT_EPOCH":452,"BSTAR":0.0014544474,"MEAN_MOTION_DOT":0.00058242,"MEAN_MOTION_DDOT":0},{"OBJECT_NAME":"STARLINK-35471","OBJECT_ID":"2025-223L","EPOCH":"2025-11-01T14:00:01.999872","MEAN_MOTION":15.39605759,"ECCENTRICITY":0.00010637,"INCLINATION":53.1594,"RA_OF_ASC_NODE":171.2025,"ARG_OF_PERICENTER":125.1774,"MEAN_ANOMALY":243.9016,"EPHEMERIS_TYPE":0,"CLASSIFICATION_TYPE":"U","NORAD_CAT_ID":65864,"ELEMENT_SET_NO":999,"REV_AT_EPOCH":587,"BSTAR":0.0021514759,"MEAN_MOTION_DOT":0.000866,"MEAN_MOTION_DDOT":0}]
